[{"OBJECT_NAME":"GAOFEN-9 03","OBJECT_ID":"2020-039A","EPOCH":"2026-03-09T21:55:15.121344","MEAN_MOTION":15.30529116,"ECCENTRICITY":0.0013094,"INCLINATION":97.5219,"RA_OF_ASC_NODE":201.2158,"ARG_OF_PERICENTER":77.4533,"MEAN_ANOMALY":282.8172,"EPHEMERIS_TYPE":0,"CLASSIFICATION_TYPE":"U","NORAD_CAT_ID":45794,"ELEMENT_SET_NO":999,"REV_AT_EPOCH":31856,"BSTAR":0.00039258132,"MEAN_MOTION_DOT":0.00011544,"MEAN_MOTION_DDOT":0},{"OBJECT_NAME":"STARLINK-30789","OBJECT_ID":"2023-166S","EPOCH":"2026-03-09T15:40:43.799808","MEAN_MOTION":15.30179862,"ECCENTRICITY":0.00015567,"INCLINATION":53.1596,"RA_OF_ASC_NODE":219.7891,"ARG_OF_PERICENTER":88.6419,"MEAN_ANOMALY":271.476,"EPHEMERIS_TYPE":0,"CLASSIFICATION_TYPE":"U","NORAD_CAT_ID":58166,"ELEMENT_SET_NO":999,"REV_AT_EPOCH":13317,"BSTAR":-4.5699263e-5,"MEAN_MOTION_DOT":-1.712e-5,"MEAN_MOTION_DDOT":0}]
